CCSDS_OMM_VERS = 2.0
CREATION_DATE  = 
ORIGINATOR     = 

OBJECT_NAME    = STARLINK-35608
OBJECT_ID      = 2025-263Z
CENTER_NAME    = EARTH
REF_FRAME      = TEME
TIME_SYSTEM    = UTC
MEAN_ELEMENT_THEORY = SGP/SGP4

EPOCH          = 2025-12-02T04:00:03.998880
MEAN_MOTION    = 15.75060988
ECCENTRICITY   = .0001837
INCLINATION    = 42.9985
RA_OF_ASC_NODE = 187.6087
ARG_OF_PERICENTER = 272.6235
MEAN_ANOMALY   = 71.9116

EPHEMERIS_TYPE = 0
CLASSIFICATION_TYPE = U
NORAD_CAT_ID   = 66508
ELEMENT_SET_NO = 999
REV_AT_EPOCH   = 393
BSTAR          = -.33673E-3
MEAN_MOTION_DOT = -.51936E-3
MEAN_MOTION_DDOT = 0

CCSDS_OMM_VERS = 2.0
CREATION_DATE  = 
ORIGINATOR     = 

OBJECT_NAME    = STARLINK-35598
OBJECT_ID      = 2025-263AA
CENTER_NAME    = EARTH
REF_FRAME      = TEME
TIME_SYSTEM    = UTC
MEAN_ELEMENT_THEORY = SGP/SGP4

EPOCH          = 2025-12-02T04:00:03.998880
MEAN_MOTION    = 15.75069655
ECCENTRICITY   = .0001651
INCLINATION    = 43.0022
RA_OF_ASC_NODE = 187.5879
ARG_OF_PERICENTER = 273.6516
MEAN_ANOMALY   = 78.5548

EPHEMERIS_TYPE = 0
CLASSIFICATION_TYPE = U
NORAD_CAT_ID   = 66509
ELEMENT_SET_NO = 999
REV_AT_EPOCH   = 393
BSTAR          = -.40133E-3
MEAN_MOTION_DOT = -.61759E-3
MEAN_MOTION_DDOT = 0

CCSDS_OMM_VERS = 2.0
CREATION_DATE  = 
ORIGINATOR     = 

OBJECT_NAME    = STARLINK-35600
OBJECT_ID      = 2025-263AB
CENTER_NAME    = EARTH
REF_FRAME      = TEME
TIME_SYSTEM    = UTC
MEAN_ELEMENT_THEORY = SGP/SGP4

EPOCH          = 2025-12-02T04:00:03.998880
MEAN_MOTION    = 15.75068283
ECCENTRICITY   = .0001938
INCLINATION    = 42.9986
RA_OF_ASC_NODE = 187.6030
ARG_OF_PERICENTER = 271.4956
MEAN_ANOMALY   = 74.9474

EPHEMERIS_TYPE = 0
CLASSIFICATION_TYPE = U
NORAD_CAT_ID   = 66510
ELEMENT_SET_NO = 999
REV_AT_EPOCH   = 393
BSTAR          = -.21137E-3
MEAN_MOTION_DOT = -.32862E-3
MEAN_MOTION_DDOT = 0

CCSDS_OMM_VERS = 2.0
CREATION_DATE  = 
ORIGINATOR     = 

OBJECT_NAME    = STARLINK-35444
OBJECT_ID      = 2025-263AC
CENTER_NAME    = EARTH
REF_FRAME      = TEME
TIME_SYSTEM    = UTC
MEAN_ELEMENT_THEORY = SGP/SGP4

EPOCH          = 2025-12-02T04:00:03.998880
MEAN_MOTION    = 15.75070561
ECCENTRICITY   = .0001726
INCLINATION    = 42.9985
RA_OF_ASC_NODE = 187.5934
ARG_OF_PERICENTER = 269.7433
MEAN_ANOMALY   = 80.5416

EPHEMERIS_TYPE = 0
CLASSIFICATION_TYPE = U
NORAD_CAT_ID   = 66511
ELEMENT_SET_NO = 999
REV_AT_EPOCH   = 393
BSTAR          = -.50424E-3
MEAN_MOTION_DOT = -.77335E-3
MEAN_MOTION_DDOT = 0

CCSDS_OMM_VERS = 2.0
CREATION_DATE  = 
ORIGINATOR     = 

OBJECT_NAME    = STARLINK-35366
OBJECT_ID      = 2025-263AD
CENTER_NAME    = EARTH
REF_FRAME      = TEME
TIME_SYSTEM    = UTC
MEAN_ELEMENT_THEORY = SGP/SGP4

EPOCH          = 2025-12-02T04:00:03.998880
MEAN_MOTION    = 15.75067196
ECCENTRICITY   = .0001866
INCLINATION    = 43.0022
RA_OF_ASC_NODE = 187.5832
ARG_OF_PERICENTER = 262.6712
MEAN_ANOMALY   = 91.4467

EPHEMERIS_TYPE = 0
CLASSIFICATION_TYPE = U
NORAD_CAT_ID   = 66512
ELEMENT_SET_NO = 999
REV_AT_EPOCH   = 393
BSTAR          = -.31131E-3
MEAN_MOTION_DOT = -.48087E-3
MEAN_MOTION_DDOT = 0

CCSDS_OMM_VERS = 2.0
CREATION_DATE  = 
ORIGINATOR     = 

OBJECT_NAME    = STARLINK-35692
OBJECT_ID      = 2025-263AE
CENTER_NAME    = EARTH
REF_FRAME      = TEME
TIME_SYSTEM    = UTC
MEAN_ELEMENT_THEORY = SGP/SGP4

EPOCH          = 2025-12-02T04:00:03.998880
MEAN_MOTION    = 15.75054792
ECCENTRICITY   = .0001813
INCLINATION    = 42.9984
RA_OF_ASC_NODE = 187.5985
ARG_OF_PERICENTER = 284.9937
MEAN_ANOMALY   = 63.3806

EPHEMERIS_TYPE = 0
CLASSIFICATION_TYPE = U
NORAD_CAT_ID   = 66513
ELEMENT_SET_NO = 999
REV_AT_EPOCH   = 393
BSTAR          = -.19335E-3
MEAN_MOTION_DOT = -.30093E-3
MEAN_MOTION_DDOT = 0

CCSDS_OMM_VERS = 2.0
CREATION_DATE  = 
ORIGINATOR     = 

OBJECT_NAME    = SENTINEL-6B
OBJECT_ID      = 2025-264A
CENTER_NAME    = EARTH
REF_FRAME      = TEME
TIME_SYSTEM    = UTC
MEAN_ELEMENT_THEORY = SGP/SGP4

EPOCH          = 2025-12-02T01:07:30.457056
MEAN_MOTION    = 12.85877319
ECCENTRICITY   = .0011528
INCLINATION    = 66.0388
RA_OF_ASC_NODE = 184.7629
ARG_OF_PERICENTER = 268.8495
MEAN_ANOMALY   = 91.1202

EPHEMERIS_TYPE = 0
CLASSIFICATION_TYPE = U
NORAD_CAT_ID   = 66514
ELEMENT_SET_NO = 999
REV_AT_EPOCH   = 191
BSTAR          = .32638E-3
MEAN_MOTION_DOT = .19E-6
MEAN_MOTION_DDOT = 0

CCSDS_OMM_VERS = 2.0
CREATION_DATE  = 
ORIGINATOR     = 

OBJECT_NAME    = STARLINK-35924
OBJECT_ID      = 2025-265A
CENTER_NAME    = EARTH
REF_FRAME      = TEME
TIME_SYSTEM    = UTC
MEAN_ELEMENT_THEORY = SGP/SGP4

EPOCH          = 2025-12-02T04:00:03.998880
MEAN_MOTION    = 15.75025676
ECCENTRICITY   = .0001518
INCLINATION    = 42.9996
RA_OF_ASC_NODE = 116.9221
ARG_OF_PERICENTER = 269.0714
MEAN_ANOMALY   = 102.0697

EPHEMERIS_TYPE = 0
CLASSIFICATION_TYPE = U
NORAD_CAT_ID   = 66516
ELEMENT_SET_NO = 999
REV_AT_EPOCH   = 327
BSTAR          = .29145E-3
MEAN_MOTION_DOT = .44502E-3
MEAN_MOTION_DDOT = 0

CCSDS_OMM_VERS = 2.0
CREATION_DATE  = 
ORIGINATOR     = 

OBJECT_NAME    = STARLINK-35937
OBJECT_ID      = 2025-265B
CENTER_NAME    = EARTH
REF_FRAME      = TEME
TIME_SYSTEM    = UTC
MEAN_ELEMENT_THEORY = SGP/SGP4

EPOCH          = 2025-12-02T04:00:03.998880
MEAN_MOTION    = 15.75027739
ECCENTRICITY   = .0001574
INCLINATION    = 42.9997
RA_OF_ASC_NODE = 116.9178
ARG_OF_PERICENTER = 266.3366
MEAN_ANOMALY   = 106.7302

EPHEMERIS_TYPE = 0
CLASSIFICATION_TYPE = U
NORAD_CAT_ID   = 66517
ELEMENT_SET_NO = 999
REV_AT_EPOCH   = 329
BSTAR          = .13938E-3
MEAN_MOTION_DOT = .20975E-3
MEAN_MOTION_DDOT = 0

CCSDS_OMM_VERS = 2.0
CREATION_DATE  = 
ORIGINATOR     = 

OBJECT_NAME    = STARLINK-35962
OBJECT_ID      = 2025-265C
CENTER_NAME    = EARTH
REF_FRAME      = TEME
TIME_SYSTEM    = UTC
MEAN_ELEMENT_THEORY = SGP/SGP4

EPOCH          = 2025-12-02T04:00:03.998880
MEAN_MOTION    = 15.75127529
ECCENTRICITY   = .0002105
INCLINATION    = 42.9995
RA_OF_ASC_NODE = 116.9132
ARG_OF_PERICENTER = 266.0478
MEAN_ANOMALY   = 108.8727

EPHEMERIS_TYPE = 0
CLASSIFICATION_TYPE = U
NORAD_CAT_ID   = 66518
ELEMENT_SET_NO = 999
REV_AT_EPOCH   = 329
BSTAR          = -.67816E-3
MEAN_MOTION_DOT = -.103788E-2
MEAN_MOTION_DDOT = 0

CCSDS_OMM_VERS = 2.0
CREATION_DATE  = 
ORIGINATOR     = 

OBJECT_NAME    = STARLINK-35931
OBJECT_ID      = 2025-265D
CENTER_NAME    = EARTH
REF_FRAME      = TEME
TIME_SYSTEM    = UTC
MEAN_ELEMENT_THEORY = SGP/SGP4

EPOCH          = 2025-12-02T04:00:03.998880
MEAN_MOTION    = 15.75031755
ECCENTRICITY   = .0001903
INCLINATION    = 42.9996
RA_OF_ASC_NODE = 116.9078
ARG_OF_PERICENTER = 264.9173
MEAN_ANOMALY   = 111.9771

EPHEMERIS_TYPE = 0
CLASSIFICATION_TYPE = U
NORAD_CAT_ID   = 66519
ELEMENT_SET_NO = 999
REV_AT_EPOCH   = 329
BSTAR          = .14942E-3
MEAN_MOTION_DOT = .22529E-3
MEAN_MOTION_DDOT = 0

CCSDS_OMM_VERS = 2.0
CREATION_DATE  = 
ORIGINATOR     = 

OBJECT_NAME    = STARLINK-35952
OBJECT_ID      = 2025-265E
CENTER_NAME    = EARTH
REF_FRAME      = TEME
TIME_SYSTEM    = UTC
MEAN_ELEMENT_THEORY = SGP/SGP4

EPOCH          = 2025-12-02T04:00:03.998880
MEAN_MOTION    = 15.75235655
ECCENTRICITY   = .0001566
INCLINATION    = 42.9994
RA_OF_ASC_NODE = 116.9030
ARG_OF_PERICENTER = 293.5023
MEAN_ANOMALY   = 85.2607

EPHEMERIS_TYPE = 0
CLASSIFICATION_TYPE = U
NORAD_CAT_ID   = 66520
ELEMENT_SET_NO = 999
REV_AT_EPOCH   = 329
BSTAR          = -.22687E-2
MEAN_MOTION_DOT = -.338275E-2
MEAN_MOTION_DDOT = 0

