STARLINK-35608          
1 66508U 25263Z   25336.16671295 -.00051936  00000+0 -33673-3 0  9999
2 66508  42.9985 187.6087 0001837 272.6235  71.9116 15.75060988  3936
STARLINK-35598          
1 66509U 25263AA  25336.16671295 -.00061759  00000+0 -40133-3 0  9993
2 66509  43.0022 187.5879 0001651 273.6516  78.5548 15.75069655  3938
STARLINK-35600          
1 66510U 25263AB  25336.16671295 -.00032862  00000+0 -21137-3 0  9991
2 66510  42.9986 187.6030 0001938 271.4956  74.9474 15.75068283  3933
STARLINK-35444          
1 66511U 25263AC  25336.16671295 -.00077335  00000+0 -50424-3 0  9997
2 66511  42.9985 187.5934 0001726 269.7433  80.5416 15.75070561  3931
STARLINK-35366          
1 66512U 25263AD  25336.16671295 -.00048087  00000+0 -31131-3 0  9994
2 66512  43.0022 187.5832 0001866 262.6712  91.4467 15.75067196  3937
STARLINK-35692          
1 66513U 25263AE  25336.16671295 -.00030093  00000+0 -19335-3 0  9995
2 66513  42.9984 187.5985 0001813 284.9937  63.3806 15.75054792  3933
SENTINEL-6B             
1 66514U 25264A   25336.04688029  .00000019  00000+0  32638-3 0  9991
2 66514  66.0388 184.7629 0011528 268.8495  91.1202 12.85877319  1918
STARLINK-35924          
1 66516U 25265A   25336.16671295  .00044502  00000+0  29145-3 0  9998
2 66516  42.9996 116.9221 0001518 269.0714 102.0697 15.75025676  3272
STARLINK-35937          
1 66517U 25265B   25336.16671295  .00020975  00000+0  13938-3 0  9990
2 66517  42.9997 116.9178 0001574 266.3366 106.7302 15.75027739  3298
STARLINK-35962          
1 66518U 25265C   25336.16671295 -.00103788  00000+0 -67816-3 0  9991
2 66518  42.9995 116.9132 0002105 266.0478 108.8727 15.75127529  3291
STARLINK-35931          
1 66519U 25265D   25336.16671295  .00022529  00000+0  14942-3 0  9995
2 66519  42.9996 116.9078 0001903 264.9173 111.9771 15.75031755  3295
STARLINK-35952          
1 66520U 25265E   25336.16671295 -.00338275  00000+0 -22687-2 0  9991
2 66520  42.9994 116.9030 0001566 293.5023  85.2607 15.75235655  3296
